[{"model": "geo.region", "pk": 1, "fields": {"name": {"name_oz": "?îđŕ?ŕëďî?čńňîí Đĺńďóáëčęŕńč", "name_ru": "Đĺńďóáëčęŕ Ęŕđŕęŕëďŕęńňŕí", "name_uz": "Qoraqalpog‘iston Respublikasi"}, "slug": "qoraqalpogiston-respublikasi", "ordering": 1}}, {"model": "geo.region", "pk": 2, "fields": {"name": {"name_oz": "Ŕíäčćîí âčëî˙ňč", "name_ru": "Ŕíäčćŕíńęŕ˙ îáëŕńňü", "name_uz": "Andijon viloyati"}, "slug": "andijon-viloyati", "ordering": 2}}, {"model": "geo.region", "pk": 3, "fields": {"name": {"name_oz": "Áóőîđî âčëî˙ňč", "name_ru": "Áóőŕđńęŕ˙ îáëŕńňü", "name_uz": "Buxoro viloyati"}, "slug": "buxoro-viloyati", "ordering": 3}}, {"model": "geo.region", "pk": 4, "fields": {"name": {"name_oz": "Ćčççŕő âčëî˙ňč", "name_ru": "Äćčçŕęńęŕ˙ îáëŕńňü", "name_uz": "Jizzax viloyati"}, "slug": "jizzax-viloyati", "ordering": 4}}, {"model": "geo.region", "pk": 5, "fields": {"name": {"name_oz": "?ŕř?ŕäŕđ¸ âčëî˙ňč", "name_ru": "Ęŕřęŕäŕđüčíńęŕ˙ îáëŕńňü", "name_uz": "Qashqadaryo viloyati"}, "slug": "qashqadaryo-viloyati", "ordering": 5}}, {"model": "geo.region", "pk": 6, "fields": {"name": {"name_oz": "Íŕâîčé âčëî˙ňč", "name_ru": "Íŕâîčéńęŕ˙ îáëŕńňü", "name_uz": "Navoiy viloyati"}, "slug": "navoiy-viloyati", "ordering": 6}}, {"model": "geo.region", "pk": 7, "fields": {"name": {"name_oz": "Íŕěŕíăŕí âčëî˙ňč", "name_ru": "Íŕěŕíăŕíńęŕ˙ îáëŕńňü", "name_uz": "Namangan viloyati"}, "slug": "namangan-viloyati", "ordering": 7}}, {"model": "geo.region", "pk": 8, "fields": {"name": {"name_oz": "Ńŕěŕđ?ŕíä âčëî˙ňč", "name_ru": "Ńŕěŕđęŕíäńęŕ˙ îáëŕńňü", "name_uz": "Samarqand viloyati"}, "slug": "samarqand-viloyati", "ordering": 8}}, {"model": "geo.region", "pk": 9, "fields": {"name": {"name_oz": "Ńóđőŕíäŕđ¸ âčëî˙ňč", "name_ru": "Ńóđőŕíäŕđüčíńęŕ˙ îáëŕńňü", "name_uz": "Surxandaryo viloyati"}, "slug": "surxandaryo-viloyati", "ordering": 9}}, {"model": "geo.region", "pk": 10, "fields": {"name": {"name_oz": "Ńčđäŕđ¸ âčëî˙ňč", "name_ru": "Ńűđäŕđüčíńęŕ˙ îáëŕńňü", "name_uz": "Sirdaryo viloyati"}, "slug": "sirdaryo-viloyati", "ordering": 10}}, {"model": "geo.region", "pk": 11, "fields": {"name": {"name_oz": "Ňîřęĺíň âčëî˙ňč", "name_ru": "Ňŕřęĺíňńęŕ˙ îáëŕńňü", "name_uz": "Toshkent viloyati"}, "slug": "toshkent-viloyati", "ordering": 11}}, {"model": "geo.region", "pk": 12, "fields": {"name": {"name_oz": "Ôŕđ?îíŕ âčëî˙ňč", "name_ru": "Ôĺđăŕíńęŕ˙ îáëŕńňü", "name_uz": "Farg‘ona viloyati"}, "slug": "fargona-viloyati", "ordering": 12}}, {"model": "geo.region", "pk": 13, "fields": {"name": {"name_oz": "Őîđŕçě âčëî˙ňč", "name_ru": "Őîđĺçěńęŕ˙ îáëŕńňü", "name_uz": "Xorazm viloyati"}, "slug": "xorazm-viloyati", "ordering": 13}}, {"model": "geo.region", "pk": 14, "fields": {"name": {"name_oz": "Ňîřęĺíň řŕ?đč", "name_ru": "Ăîđîä Ňŕřęĺíň", "name_uz": "Toshkent shahri"}, "slug": "toshkent-shahri", "ordering": 14}}, {"model": "geo.district", "pk": 1, "fields": {"name": {"name_oz": "Àìóäàð¸ òóìàíè", "name_ru": "Àìóäàðüèíñêèé ðàéîí", "name_uz": "Amudaryo tumani"}, "region": 1, "slug": "amudaryo-tumani", "ordering": 1}}, {"model": "geo.district", "pk": 2, "fields": {"name": {"name_oz": "Áåðóíèé òóìàíè", "name_ru": "Áåðóíèéñêèé ðàéîí", "name_uz": "Beruniy tumani"}, "region": 1, "slug": "beruniy-tumani", "ordering": 2}}, {"model": "geo.district", "pk": 3, "fields": {"name": {"name_oz": "Êåãàéëè òóìàíè", "name_ru": "Êåãåéëèéñêèé ðàéîí", "name_uz": "Kegayli tumani"}, "region": 1, "slug": "kegayli-tumani", "ordering": 3}}, {"model": "geo.district", "pk": 4, "fields": {"name": {"name_oz": "?îíëèê¢ë òóìàíè", "name_ru": "Êàíëûêóëüñêèé ðàéîí", "name_uz": "Qonliko‘l tumani"}, "region": 1, "slug": "qonlikol-tumani", "ordering": 4}}, {"model": "geo.district", "pk": 5, "fields": {"name": {"name_oz": "?îðà¢çàê òóìàíè", "name_ru": "Êàðàóçÿêñêèé ðàéîí", "name_uz": "Qorao‘zak tumani"}, "region": 1, "slug": "qoraozak-tumani", "ordering": 5}}, {"model": "geo.district", "pk": 6, "fields": {"name": {"name_oz": "?¢í?èðîò òóìàíè", "name_ru": "Êóíãðàäñêèé ðàéîí", "name_uz": "Qo‘ng‘irot tumani"}, "region": 1, "slug": "qongirot-tumani", "ordering": 6}}, {"model": "geo.district", "pk": 7, "fields": {"name": {"name_oz": "Ì¢éíî? òóìàíè", "name_ru": "Ìóéíàêñêèé ðàéîí", "name_uz": "Mo‘ynoq tumani"}, "region": 1, "slug": "moynoq-tumani", "ordering": 7}}, {"model": "geo.district", "pk": 8, "fields": {"name": {"name_oz": "Íóêóñ òóìàíè", "name_ru": "Íóêóññêèé ðàéîí", "name_uz": "Nukus tumani"}, "region": 1, "slug": "nukus-tumani", "ordering": 8}}, {"model": "geo.district", "pk": 9, "fields": {"name": {"name_oz": "Íóêóñ øà?ðè", "name_ru": "ãîðîä Íóêóñ", "name_uz": "Nukus shahri"}, "region": 1, "slug": "nukus-shahri", "ordering": 9}}, {"model": "geo.district", "pk": 10, "fields": {"name": {"name_oz": "Òàõòàê¢ïèð òóìàíè", "name_ru": "Òàõòàêóïûðñêèé ðàéîí", "name_uz": "Taxtako‘pir tumani"}, "region": 1, "slug": "taxtakopir-tumani", "ordering": 10}}, {"model": "geo.district", "pk": 11, "fields": {"name": {"name_oz": "Ò¢ðòê¢ë òóìàíè", "name_ru": "Òóðòêóëüñêèé ðàéîí", "name_uz": "To‘rtko‘l tumani"}, "region": 1, "slug": "tortkol-tumani", "ordering": 11}}, {"model": "geo.district", "pk": 12, "fields": {"name": {"name_oz": "Õ¢æàéëè òóìàíè", "name_ru": "Õîäæåéëèéñêèé ðàéîí", "name_uz": "Xo‘jayli tumani"}, "region": 1, "slug": "xojayli-tumani", "ordering": 12}}, {"model": "geo.district", "pk": 13, "fields": {"name": {"name_oz": "×èìáîé òóìàíè", "name_ru": "×èìáàéñêèé ðàéîí", "name_uz": "Chimboy tumani"}, "region": 1, "slug": "chimboy-tumani", "ordering": 13}}, {"model": "geo.district", "pk": 14, "fields": {"name": {"name_oz": "Øóìàíàé òóìàíè", "name_ru": "Øóìàíàéñêèé ðàéîí", "name_uz": "Shumanay tumani"}, "region": 1, "slug": "shumanay-tumani", "ordering": 14}}, {"model": "geo.district", "pk": 15, "fields": {"name": {"name_oz": "Ýëëèê?àëúà òóìàíè", "name_ru": "Ýëëèêêàëèíñêèé ðàéîí", "name_uz": "Ellikqal‘a tumani"}, "region": 1, "slug": "ellikqala-tumani", "ordering": 15}}, {"model": "geo.district", "pk": 16, "fields": {"name": {"name_oz": "Òàõèàòîø øà?ðè", "name_ru": "Òàõèàòàøñêèé ðàéîí", "name_uz": "Taxiatosh shahri"}, "region": 1, "slug": "taxiatosh-shahri", "ordering": 16}}, {"model": "geo.district", "pk": 17, "fields": {"name": {"name_oz": "Á¢çàòîâ òóìàíè", "name_ru": "Áîçàòîâñêèé ðàéîí", "name_uz": "Bo‘zatov tumani"}, "region": 1, "slug": "bozatov-tumani", "ordering": 17}}, {"model": "geo.district", "pk": 18, "fields": {"name": {"name_oz": "Àíäèæîí øà?ðè", "name_ru": "ãîðîä Àíäèæàí", "name_uz": "Andijon shahri"}, "region": 2, "slug": "andijon-shahri", "ordering": 1}}, {"model": "geo.district", "pk": 19, "fields": {"name": {"name_oz": "Àíäèæîí òóìàíè", "name_ru": "Àíäèæàíñêèé ðàéîí", "name_uz": "Andijon tumani"}, "region": 2, "slug": "andijon-tumani", "ordering": 2}}, {"model": "geo.district", "pk": 20, "fields": {"name": {"name_oz": "Àñàêà òóìàíè", "name_ru": "Àñàêèíñêèé ðàéîí", "name_uz": "Asaka tumani"}, "region": 2, "slug": "asaka-tumani", "ordering": 3}}, {"model": "geo.district", "pk": 21, "fields": {"name": {"name_oz": "Áàëè?÷è òóìàíè", "name_ru": "Áàëûê÷èíñêèé ðàéîí", "name_uz": "Baliqchi tumani"}, "region": 2, "slug": "baliqchi-tumani", "ordering": 4}}, {"model": "geo.district", "pk": 22, "fields": {"name": {"name_oz": "Áóëî?áîøè òóìàíè", "name_ru": "Áóëàêáàøèíñêèé ðàéîí", "name_uz": "Buloqboshi tumani"}, "region": 2, "slug": "buloqboshi-tumani", "ordering": 5}}, {"model": "geo.district", "pk": 23, "fields": {"name": {"name_oz": "Á¢ç òóìàíè", "name_ru": "Áîçñêèé ðàéîí", "name_uz": "Bo‘z tumani"}, "region": 2, "slug": "boz-tumani", "ordering": 6}}, {"model": "geo.district", "pk": 24, "fields": {"name": {"name_oz": "Æàëà?óäó? òóìàíè", "name_ru": "Äæàëàêóäóêñêèé ðàéîí", "name_uz": "Jalaquduq tumani"}, "region": 2, "slug": "jalaquduq-tumani", "ordering": 7}}, {"model": "geo.district", "pk": 25, "fields": {"name": {"name_oz": "Èçáîñãàí òóìàíè", "name_ru": "Èçáàñêàíñêèé ðàéîí", "name_uz": "Izbosgan tumani"}, "region": 2, "slug": "izbosgan-tumani", "ordering": 8}}, {"model": "geo.district", "pk": 26, "fields": {"name": {"name_oz": "?îðàñóâ øà?ðè", "name_ru": "ãîðîä Êàðàñóâ", "name_uz": "Qorasuv shahri"}, "region": 2, "slug": "qorasuv-shahri", "ordering": 9}}, {"model": "geo.district", "pk": 27, "fields": {"name": {"name_oz": "?¢ð?îíòåïà òóìàíè", "name_ru": "Êóðãàíòåïèíñêèé ðàéîí", "name_uz": "Qo‘rg‘ontepa tumani"}, "region": 2, "slug": "qorgontepa-tumani", "ordering": 10}}, {"model": "geo.district", "pk": 28, "fields": {"name": {"name_oz": "Ìàð?àìàò òóìàíè", "name_ru": "Ìàðõàìàòñêèé ðàéîí", "name_uz": "Marhamat tumani"}, "region": 2, "slug": "marhamat-tumani", "ordering": 11}}, {"model": "geo.district", "pk": 29, "fields": {"name": {"name_oz": "Îëòèíê¢ë òóìàíè", "name_ru": "Àëòûíêóëüñêèé ðàéîí", "name_uz": "Oltinko‘l tumani"}, "region": 2, "slug": "oltinkol-tumani", "ordering": 12}}, {"model": "geo.district", "pk": 30, "fields": {"name": {"name_oz": "Ïàõòàîáîä òóìàíè", "name_ru": "Ïàõòààáàäñêèé ðàéîí", "name_uz": "Paxtaobod tumani"}, "region": 2, "slug": "paxtaobod-tumani", "ordering": 13}}, {"model": "geo.district", "pk": 31, "fields": {"name": {"name_oz": "Óëó?íîð òóìàíè", "name_ru": "Óëóãíîðñêèé ðàéîí", "name_uz": "Ulug‘nor tumani"}, "region": 2, "slug": "ulugnor-tumani", "ordering": 14}}, {"model": "geo.district", "pk": 32, "fields": {"name": {"name_oz": "Õîíàáîä òóìàíè", "name_ru": "ãîðîä Õàíàáàä", "name_uz": "Xonabod tumani"}, "region": 2, "slug": "xonabod-tumani", "ordering": 15}}, {"model": "geo.district", "pk": 33, "fields": {"name": {"name_oz": "Õ¢æàîáîä òóìàíè", "name_ru": "Õîäæààáàäñêèé ðàéîí", "name_uz": "Xo‘jaobod tumani"}, "region": 2, "slug": "xojaobod-tumani", "ordering": 16}}, {"model": "geo.district", "pk": 34, "fields": {"name": {"name_oz": "Øà?ðèõîí òóìàíè", "name_ru": "Øàõðèõàíñêèé ðàéîí", "name_uz": "Shahrixon tumani"}, "region": 2, "slug": "shahrixon-tumani", "ordering": 17}}, {"model": "geo.district", "pk": 35, "fields": {"name": {"name_oz": "Àñàêà øà?ðè", "name_ru": "Àñàêèíñêèé ðàéîí", "name_uz": "Asaka shahri"}, "region": 2, "slug": "asaka-shahri", "ordering": 18}}, {"model": "geo.district", "pk": 36, "fields": {"name": {"name_oz": "Áóõîðî øà?ðè", "name_ru": "ãîðîä Áóõàðà", "name_uz": "Buxoro shahri"}, "region": 3, "slug": "buxoro-shahri", "ordering": 1}}, {"model": "geo.district", "pk": 37, "fields": {"name": {"name_oz": "Áóõîðî òóìàíè", "name_ru": "Áóõàðñêèé ðàéîí", "name_uz": "Buxoro tumani"}, "region": 3, "slug": "buxoro-tumani", "ordering": 2}}, {"model": "geo.district", "pk": 38, "fields": {"name": {"name_oz": "Âîáêåíò òóìàíè", "name_ru": "Âàáêåíòñêèé ðàéîí", "name_uz": "Vobkent tumani"}, "region": 3, "slug": "vobkent-tumani", "ordering": 3}}, {"model": "geo.district", "pk": 39, "fields": {"name": {"name_oz": "?èæäóâîí òóìàíè", "name_ru": "Ãèæäóâàíñêèé ðàéîí", "name_uz": "G‘ijduvon tumani"}, "region": 3, "slug": "gijduvon-tumani", "ordering": 4}}, {"model": "geo.district", "pk": 40, "fields": {"name": {"name_oz": "Æîíäîð òóìàíè", "name_ru": "Æîíäîðñêèé ðàéîí", "name_uz": "Jondor tumani"}, "region": 3, "slug": "jondor-tumani", "ordering": 5}}, {"model": "geo.district", "pk": 41, "fields": {"name": {"name_oz": "Êîãîí òóìàíè", "name_ru": "Êàãàíñêèé ðàéîí", "name_uz": "Kogon tumani"}, "region": 3, "slug": "kogon-tumani", "ordering": 6}}, {"model": "geo.district", "pk": 42, "fields": {"name": {"name_oz": "Êîãîí øà?ðè", "name_ru": "ãîðîä Êàãàí", "name_uz": "Kogon shahri"}, "region": 3, "slug": "kogon-shahri", "ordering": 7}}, {"model": "geo.district", "pk": 43, "fields": {"name": {"name_oz": "?îðàê¢ë òóìàíè", "name_ru": "Êàðàêóëüñêèé ðàéîí", "name_uz": "Qorako‘l tumani"}, "region": 3, "slug": "qorakol-tumani", "ordering": 8}}, {"model": "geo.district", "pk": 44, "fields": {"name": {"name_oz": "?îðîâóëáîçîð òóìàíè", "name_ru": "Êàðàóëáàçàðñêèé ðàéîí", "name_uz": "Qorovulbozor tumani"}, "region": 3, "slug": "qorovulbozor-tumani", "ordering": 9}}, {"model": "geo.district", "pk": 45, "fields": {"name": {"name_oz": "Îëîò òóìàíè", "name_ru": "Àëàòñêèé ðàéîí", "name_uz": "Olot tumani"}, "region": 3, "slug": "olot-tumani", "ordering": 10}}, {"model": "geo.district", "pk": 46, "fields": {"name": {"name_oz": "Ïåøêó òóìàíè", "name_ru": "Ïåøêóíñêèé ðàéîí", "name_uz": "Peshku tumani"}, "region": 3, "slug": "peshku-tumani", "ordering": 11}}, {"model": "geo.district", "pk": 47, "fields": {"name": {"name_oz": "Ðîìèòàí òóìàíè", "name_ru": "Ðîìèòàíñêèé ðàéîí", "name_uz": "Romitan tumani"}, "region": 3, "slug": "romitan-tumani", "ordering": 12}}, {"model": "geo.district", "pk": 48, "fields": {"name": {"name_oz": "Øîôèðêîí òóìàíè", "name_ru": "Øàôèðêàíñêèé ðàéîí", "name_uz": "Shofirkon tumani"}, "region": 3, "slug": "shofirkon-tumani", "ordering": 13}}, {"model": "geo.district", "pk": 49, "fields": {"name": {"name_oz": "Àðíàñîé òóìàíè", "name_ru": "Àðíàñàéñêèé ðàéîí", "name_uz": "Arnasoy tumani"}, "region": 4, "slug": "arnasoy-tumani", "ordering": 1}}, {"model": "geo.district", "pk": 50, "fields": {"name": {"name_oz": "Áàõìàë òóìàíè", "name_ru": "Áàõìàëüñêèé ðàéîí", "name_uz": "Baxmal tumani"}, "region": 4, "slug": "baxmal-tumani", "ordering": 2}}, {"model": "geo.district", "pk": 51, "fields": {"name": {"name_oz": "?àëëàîðîë òóìàíè", "name_ru": "Ãàëëÿàðàëüñêèé ðàéîí", "name_uz": "G‘allaorol tumani"}, "region": 4, "slug": "gallaorol-tumani", "ordering": 3}}, {"model": "geo.district", "pk": 52, "fields": {"name": {"name_oz": "Ä¢ñòëèê òóìàíè", "name_ru": "Äóñòëèêñêèé ðàéîí", "name_uz": "Do‘stlik tumani"}, "region": 4, "slug": "dostlik-tumani", "ordering": 4}}, {"model": "geo.district", "pk": 53, "fields": {"name": {"name_oz": "Ø.Ðàøèäîâ òóìàíè", "name_ru": "Øàðàô-Ðàøèäîâñêèé ðàéîí", "name_uz": "Sh.Rashidov tumani"}, "region": 4, "slug": "shrashidov-tumani", "ordering": 5}}, {"model": "geo.district", "pk": 54, "fields": {"name": {"name_oz": "Æèççàõ øà?ðè", "name_ru": "ãîðîä Äæèçàê", "name_uz": "Jizzax shahri"}, "region": 4, "slug": "jizzax-shahri", "ordering": 6}}, {"model": "geo.district", "pk": 55, "fields": {"name": {"name_oz": "Çàðáäîð òóìàíè", "name_ru": "Çàðáäàðñêèé ðàéîí", "name_uz": "Zarbdor tumani"}, "region": 4, "slug": "zarbdor-tumani", "ordering": 7}}, {"model": "geo.district", "pk": 56, "fields": {"name": {"name_oz": "Çàôàðîáîä òóìàíè", "name_ru": "Çàôàðàáàäñêèé ðàéîí", "name_uz": "Zafarobod tumani"}, "region": 4, "slug": "zafarobod-tumani", "ordering": 8}}, {"model": "geo.district", "pk": 57, "fields": {"name": {"name_oz": "Çîìèí òóìàíè", "name_ru": "Çààìèíñêèé ðàéîí", "name_uz": "Zomin tumani"}, "region": 4, "slug": "zomin-tumani", "ordering": 9}}, {"model": "geo.district", "pk": 58, "fields": {"name": {"name_oz": "Ìèðçà÷¢ë òóìàíè", "name_ru": "Ìèðçà÷óëüñêèé ðàéîí", "name_uz": "Mirzacho‘l tumani"}, "region": 4, "slug": "mirzachol-tumani", "ordering": 10}}, {"model": "geo.district", "pk": 59, "fields": {"name": {"name_oz": "Ïàõòàêîð òóìàíè", "name_ru": "Ïàõòàêîðñêèé ðàéîí", "name_uz": "Paxtakor tumani"}, "region": 4, "slug": "paxtakor-tumani", "ordering": 11}}, {"model": "geo.district", "pk": 60, "fields": {"name": {"name_oz": "Ôîðèø òóìàíè", "name_ru": "Ôàðèøñêèé ðàéîí", "name_uz": "Forish tumani"}, "region": 4, "slug": "forish-tumani", "ordering": 12}}, {"model": "geo.district", "pk": 61, "fields": {"name": {"name_oz": "ßíãèîáîä òóìàíè", "name_ru": "ßíãèàáàäñêèé ðàéîí", "name_uz": "Yangiobod tumani"}, "region": 4, "slug": "yangiobod-tumani", "ordering": 13}}, {"model": "geo.district", "pk": 62, "fields": {"name": {"name_oz": "?óçîð òóìàíè", "name_ru": "Ãóçàðñêèé ðàéîí", "name_uz": "G‘uzor tumani"}, "region": 5, "slug": "guzor-tumani", "ordering": 1}}, {"model": "geo.district", "pk": 63, "fields": {"name": {"name_oz": "Äå??îíîáîä òóìàíè", "name_ru": "Äåõêàíàáàäñêèé ðàéîí", "name_uz": "Dehqonobod tumani"}, "region": 5, "slug": "dehqonobod-tumani", "ordering": 2}}, {"model": "geo.district", "pk": 64, "fields": {"name": {"name_oz": "?àìàøè òóìàíè", "name_ru": "Êàìàøèíñêèé ðàéîí", "name_uz": "Qamashi tumani"}, "region": 5, "slug": "qamashi-tumani", "ordering": 3}}, {"model": "geo.district", "pk": 65, "fields": {"name": {"name_oz": "?àðøè òóìàíè", "name_ru": "Êàðøèíñêèé ðàéîí", "name_uz": "Qarshi tumani"}, "region": 5, "slug": "qarshi-tumani", "ordering": 4}}, {"model": "geo.district", "pk": 66, "fields": {"name": {"name_oz": "?àðøè øà?ðè", "name_ru": "ãîðîä Êàðøè", "name_uz": "Qarshi shahri"}, "region": 5, "slug": "qarshi-shahri", "ordering": 5}}, {"model": "geo.district", "pk": 67, "fields": {"name": {"name_oz": "Êàñáè òóìàíè", "name_ru": "Êàñáèéñêèé ðàéîí", "name_uz": "Kasbi tumani"}, "region": 5, "slug": "kasbi-tumani", "ordering": 6}}, {"model": "geo.district", "pk": 68, "fields": {"name": {"name_oz": "Êèòîá òóìàíè", "name_ru": "Êèòàáñêèé ðàéîí", "name_uz": "Kitob tumani"}, "region": 5, "slug": "kitob-tumani", "ordering": 7}}, {"model": "geo.district", "pk": 69, "fields": {"name": {"name_oz": "Êîñîí òóìàíè", "name_ru": "Êàñàíñêèé ðàéîí", "name_uz": "Koson tumani"}, "region": 5, "slug": "koson-tumani", "ordering": 8}}, {"model": "geo.district", "pk": 70, "fields": {"name": {"name_oz": "Ìèðèøêîð òóìàíè", "name_ru": "Ìèðèøêîðñêèé ðàéîí", "name_uz": "Mirishkor tumani"}, "region": 5, "slug": "mirishkor-tumani", "ordering": 9}}, {"model": "geo.district", "pk": 71, "fields": {"name": {"name_oz": "Ìóáîðàê òóìàíè", "name_ru": "Ìóáàðåêñêèé ðàéîí", "name_uz": "Muborak tumani"}, "region": 5, "slug": "muborak-tumani", "ordering": 10}}, {"model": "geo.district", "pk": 72, "fields": {"name": {"name_oz": "Íèøîí òóìàíè", "name_ru": "Íèøàíñêèé ðàéîí", "name_uz": "Nishon tumani"}, "region": 5, "slug": "nishon-tumani", "ordering": 11}}, {"model": "geo.district", "pk": 73, "fields": {"name": {"name_oz": "×èðî?÷è òóìàíè", "name_ru": "×èðàê÷èíñêèé ðàéîí", "name_uz": "Chiroqchi tumani"}, "region": 5, "slug": "chiroqchi-tumani", "ordering": 12}}, {"model": "geo.district", "pk": 74, "fields": {"name": {"name_oz": "Øà?ðèñàáç òóìàíè", "name_ru": "Øàõðèñàáçñêèé ðàéîí", "name_uz": "Shahrisabz tumani"}, "region": 5, "slug": "shahrisabz-tumani", "ordering": 13}}, {"model": "geo.district", "pk": 75, "fields": {"name": {"name_oz": "ßêêàáî? òóìàíè", "name_ru": "ßêêàáàãñêèé ðàéîí", "name_uz": "Yakkabog‘ tumani"}, "region": 5, "slug": "yakkabog-tumani", "ordering": 14}}, {"model": "geo.district", "pk": 76, "fields": {"name": {"name_oz": "Øà?ðèñàáç øà?ðè", "name_ru": "Ãîðîä Øàõðèñàáç", "name_uz": "Shahrisabz shahri"}, "region": 5, "slug": "shahrisabz-shahri", "ordering": 15}}, {"model": "geo.district", "pk": 77, "fields": {"name": {"name_oz": "Ê¢êäàëà òóìàíè", "name_ru": "Êóêäàëèíñêèé ðàéîí", "name_uz": "Ko‘kdala tumani"}, "region": 5, "slug": "kokdala-tumani", "ordering": 16}}, {"model": "geo.district", "pk": 78, "fields": {"name": {"name_oz": "Çàðàôøîí øà?ðè", "name_ru": "ãîðîä Çàðàôøàí", "name_uz": "Zarafshon shahri"}, "region": 6, "slug": "zarafshon-shahri", "ordering": 1}}, {"model": "geo.district", "pk": 79, "fields": {"name": {"name_oz": "Êàðìàíà òóìàíè", "name_ru": "Êàðìàíèíñêèé ðàéîí", "name_uz": "Karmana tumani"}, "region": 6, "slug": "karmana-tumani", "ordering": 2}}, {"model": "geo.district", "pk": 80, "fields": {"name": {"name_oz": "?èçèëòåïà òóìàíè", "name_ru": "Êûçûëòåïèíñêèé ðàéîí", "name_uz": "Qiziltepa tumani"}, "region": 6, "slug": "qiziltepa-tumani", "ordering": 3}}, {"model": "geo.district", "pk": 81, "fields": {"name": {"name_oz": "Êîíèìåõ òóìàíè", "name_ru": "Êàíèìåõñêèé ðàéîí", "name_uz": "Konimex tumani"}, "region": 6, "slug": "konimex-tumani", "ordering": 4}}, {"model": "geo.district", "pk": 82, "fields": {"name": {"name_oz": "Íàâáà?îð òóìàíè", "name_ru": "Íàâáàõîðñêèé ðàéîí", "name_uz": "Navbahor tumani"}, "region": 6, "slug": "navbahor-tumani", "ordering": 5}}, {"model": "geo.district", "pk": 83, "fields": {"name": {"name_oz": "Íàâîèé øà?ðè", "name_ru": "ãîðîä Íàâîè", "name_uz": "Navoiy shahri"}, "region": 6, "slug": "navoiy-shahri", "ordering": 6}}, {"model": "geo.district", "pk": 84, "fields": {"name": {"name_oz": "Íóðîòà òóìàíè", "name_ru": "Íóðàòèíñêèé ðàéîí", "name_uz": "Nurota tumani"}, "region": 6, "slug": "nurota-tumani", "ordering": 7}}, {"model": "geo.district", "pk": 85, "fields": {"name": {"name_oz": "Òîìäè òóìàíè", "name_ru": "Òàìäûíñêèé ðàéîí", "name_uz": "Tomdi tumani"}, "region": 6, "slug": "tomdi-tumani", "ordering": 8}}, {"model": "geo.district", "pk": 86, "fields": {"name": {"name_oz": "Ó÷?óäó? òóìàíè", "name_ru": "Ó÷êóäóêñêèé ðàéîí", "name_uz": "Uchquduq tumani"}, "region": 6, "slug": "uchquduq-tumani", "ordering": 9}}, {"model": "geo.district", "pk": 87, "fields": {"name": {"name_oz": "Õàòèð÷è òóìàíè", "name_ru": "Õàòûð÷èíñêèé ðàéîí", "name_uz": "Xatirchi tumani"}, "region": 6, "slug": "xatirchi-tumani", "ordering": 10}}, {"model": "geo.district", "pk": 88, "fields": {"name": {"name_oz": "?îç?îí øà?ðè", "name_ru": "Ãîðîä Ãîçãàí", "name_uz": "G‘ozg‘on shahri"}, "region": 6, "slug": "gozgon-shahri", "ordering": 11}}, {"model": "geo.district", "pk": 89, "fields": {"name": {"name_oz": "Êîñîíñîé òóìàíè", "name_ru": "Êàñàíñàéñêèé ðàéîí", "name_uz": "Kosonsoy tumani"}, "region": 7, "slug": "kosonsoy-tumani", "ordering": 1}}, {"model": "geo.district", "pk": 90, "fields": {"name": {"name_oz": "Ìèíãáóëî? òóìàíè", "name_ru": "Ìèíãáóëàêñêèé ðàéîí", "name_uz": "Mingbuloq tumani"}, "region": 7, "slug": "mingbuloq-tumani", "ordering": 2}}, {"model": "geo.district", "pk": 91, "fields": {"name": {"name_oz": "Íàìàíãàí òóìàíè", "name_ru": "Íàìàíãàíñêèé ðàéîí", "name_uz": "Namangan tumani"}, "region": 7, "slug": "namangan-tumani", "ordering": 3}}, {"model": "geo.district", "pk": 92, "fields": {"name": {"name_oz": "Íàìàíãàí øà?ðè", "name_ru": "ãîðîä Íàìàíãàí", "name_uz": "Namangan shahri"}, "region": 7, "slug": "namangan-shahri", "ordering": 4}}, {"model": "geo.district", "pk": 93, "fields": {"name": {"name_oz": "Íîðèí òóìàíè", "name_ru": "Íàðûíñêèé ðàéîí", "name_uz": "Norin tumani"}, "region": 7, "slug": "norin-tumani", "ordering": 5}}, {"model": "geo.district", "pk": 94, "fields": {"name": {"name_oz": "Ïîï òóìàíè", "name_ru": "Ïàïñêèé ðàéîí", "name_uz": "Pop tumani"}, "region": 7, "slug": "pop-tumani", "ordering": 6}}, {"model": "geo.district", "pk": 95, "fields": {"name": {"name_oz": "Ò¢ðà?¢ð?îí òóìàíè", "name_ru": "Òóðàêóðãàíñêèé ðàéîí", "name_uz": "To‘raqo‘rg‘on tumani"}, "region": 7, "slug": "toraqorgon-tumani", "ordering": 7}}, {"model": "geo.district", "pk": 96, "fields": {"name": {"name_oz": "Óé÷è òóìàíè", "name_ru": "Óé÷èíñêèé ðàéîí", "name_uz": "Uychi tumani"}, "region": 7, "slug": "uychi-tumani", "ordering": 8}}, {"model": "geo.district", "pk": 97, "fields": {"name": {"name_oz": "Ó÷?¢ð?îí òóìàíè", "name_ru": "Ó÷êóðãàíñêèé ðàéîí", "name_uz": "Uchqo‘rg‘on tumani"}, "region": 7, "slug": "uchqorgon-tumani", "ordering": 9}}, {"model": "geo.district", "pk": 98, "fields": {"name": {"name_oz": "×îðòî? òóìàíè", "name_ru": "×àðòàêñêèé ðàéîí", "name_uz": "Chortoq tumani"}, "region": 7, "slug": "chortoq-tumani", "ordering": 10}}, {"model": "geo.district", "pk": 99, "fields": {"name": {"name_oz": "×óñò òóìàíè", "name_ru": "×óñòñêèé ðàéîí", "name_uz": "Chust tumani"}, "region": 7, "slug": "chust-tumani", "ordering": 11}}, {"model": "geo.district", "pk": 100, "fields": {"name": {"name_oz": "ßíãè?¢ð?îí òóìàíè", "name_ru": "ßíãèêóðãàíñêèé ðàéîí", "name_uz": "Yangiqo‘rg‘on tumani"}, "region": 7, "slug": "yangiqorgon-tumani", "ordering": 12}}, {"model": "geo.district", "pk": 101, "fields": {"name": {"name_oz": "Äàâëàòîáîä òóìàíè", "name_ru": "Äàâëàòàáàäñêèé ðàéîí \r\n", "name_uz": "Davlatobod tumani"}, "region": 7, "slug": "davlatobod-tumani", "ordering": 13}}, {"model": "geo.district", "pk": 102, "fields": {"name": {"name_oz": "Áóëóí?óð òóìàíè", "name_ru": "Áóëóíãóðñêèé ðàéîí", "name_uz": "Bulung‘ur tumani"}, "region": 8, "slug": "bulungur-tumani", "ordering": 1}}, {"model": "geo.district", "pk": 103, "fields": {"name": {"name_oz": "Æîìáîé òóìàíè", "name_ru": "Äæàìáàéñêèé ðàéîí", "name_uz": "Jomboy tumani"}, "region": 8, "slug": "jomboy-tumani", "ordering": 2}}, {"model": "geo.district", "pk": 104, "fields": {"name": {"name_oz": "Èøòèõîí òóìàíè", "name_ru": "Èøòûõàíñêèé ðàéîí", "name_uz": "Ishtixon tumani"}, "region": 8, "slug": "ishtixon-tumani", "ordering": 3}}, {"model": "geo.district", "pk": 105, "fields": {"name": {"name_oz": "Êàòòà?¢ð?îí òóìàíè", "name_ru": "Êàòòàêóðãàíñêèé ðàéîí", "name_uz": "Kattaqo‘rg‘on tumani"}, "region": 8, "slug": "kattaqorgon-tumani", "ordering": 4}}, {"model": "geo.district", "pk": 106, "fields": {"name": {"name_oz": "Êàòòà?¢ð?îí øà?ðè", "name_ru": "ãîðîä Êàòòàêóðãàí", "name_uz": "Kattaqo‘rg‘on shahri"}, "region": 8, "slug": "kattaqorgon-shahri", "ordering": 5}}, {"model": "geo.district", "pk": 107, "fields": {"name": {"name_oz": "?¢øðàáîò òóìàíè", "name_ru": "Êîøðàáàäñêèé ðàéîí", "name_uz": "Qo‘shrabot tumani"}, "region": 8, "slug": "qoshrabot-tumani", "ordering": 6}}, {"model": "geo.district", "pk": 108, "fields": {"name": {"name_oz": "Íàðïàé òóìàíè", "name_ru": "Íàðïàéñêèé ðàéîí", "name_uz": "Narpay tumani"}, "region": 8, "slug": "narpay-tumani", "ordering": 7}}, {"model": "geo.district", "pk": 109, "fields": {"name": {"name_oz": "Íóðàáîä òóìàíè", "name_ru": "Íóðàáàäñêèé ðàéîí", "name_uz": "Nurabod tumani"}, "region": 8, "slug": "nurabod-tumani", "ordering": 8}}, {"model": "geo.district", "pk": 110, "fields": {"name": {"name_oz": "Î?äàð¸ òóìàíè", "name_ru": "Àêäàðüèíñêèé ðàéîí", "name_uz": "Oqdaryo tumani"}, "region": 8, "slug": "oqdaryo-tumani", "ordering": 9}}, {"model": "geo.district", "pk": 111, "fields": {"name": {"name_oz": "Ïàÿðè? òóìàíè", "name_ru": "Ïàéàðûêñêèé ðàéîí", "name_uz": "Payariq tumani"}, "region": 8, "slug": "payariq-tumani", "ordering": 10}}, {"model": "geo.district", "pk": 112, "fields": {"name": {"name_oz": "Ïàñòàð?îì òóìàíè", "name_ru": "Ïàñòäàðãîìñêèé ðàéîí", "name_uz": "Pastarg‘om tumani"}, "region": 8, "slug": "pastargom-tumani", "ordering": 11}}, {"model": "geo.district", "pk": 113, "fields": {"name": {"name_oz": "Ïàõòà÷è òóìàíè", "name_ru": "Ïàõòà÷èéñêèé ðàéîí", "name_uz": "Paxtachi tumani"}, "region": 8, "slug": "paxtachi-tumani", "ordering": 12}}, {"model": "geo.district", "pk": 114, "fields": {"name": {"name_oz": "Ñàìàð?àíä òóìàíè", "name_ru": "Ñàìàðêàíäñêèé ðàéîí", "name_uz": "Samarqand tumani"}, "region": 8, "slug": "samarqand-tumani", "ordering": 13}}, {"model": "geo.district", "pk": 115, "fields": {"name": {"name_oz": "Ñàìàð?àíä øà?ðè", "name_ru": "ãîðîä Ñàìàðêàíä", "name_uz": "Samarqand shahri"}, "region": 8, "slug": "samarqand-shahri", "ordering": 14}}, {"model": "geo.district", "pk": 116, "fields": {"name": {"name_oz": "Òîéëî? òóìàíè", "name_ru": "Òàéëàêñêèé ðàéîí", "name_uz": "Toyloq tumani"}, "region": 8, "slug": "toyloq-tumani", "ordering": 15}}, {"model": "geo.district", "pk": 117, "fields": {"name": {"name_oz": "Óðãóò òóìàíè", "name_ru": "Óðãóòñêèé ðàéîí", "name_uz": "Urgut tumani"}, "region": 8, "slug": "urgut-tumani", "ordering": 16}}, {"model": "geo.district", "pk": 118, "fields": {"name": {"name_oz": "Àíãîð òóìàíè", "name_ru": "Àíãîðñêèé ðàéîí", "name_uz": "Angor tumani"}, "region": 9, "slug": "angor-tumani", "ordering": 1}}, {"model": "geo.district", "pk": 119, "fields": {"name": {"name_oz": "Áîéñóí òóìàíè", "name_ru": "Áàéñóíñêèé ðàéîí", "name_uz": "Boysun tumani"}, "region": 9, "slug": "boysun-tumani", "ordering": 2}}, {"model": "geo.district", "pk": 120, "fields": {"name": {"name_oz": "Äåíîâ òóìàíè", "name_ru": "Äåíàóñêèé ðàéîí", "name_uz": "Denov tumani"}, "region": 9, "slug": "denov-tumani", "ordering": 3}}, {"model": "geo.district", "pk": 121, "fields": {"name": {"name_oz": "Æàð?¢ð?îí òóìàíè", "name_ru": "Äæàðêóðãàíñêèé ðàéîí", "name_uz": "Jarqo‘rg‘on tumani"}, "region": 9, "slug": "jarqorgon-tumani", "ordering": 4}}, {"model": "geo.district", "pk": 122, "fields": {"name": {"name_oz": "?èçèðè? òóìàíè", "name_ru": "Êèçèðèêñêèé ðàéîí", "name_uz": "Qiziriq tumani"}, "region": 9, "slug": "qiziriq-tumani", "ordering": 5}}, {"model": "geo.district", "pk": 123, "fields": {"name": {"name_oz": "?¢ì?¢ð?îí òóìàíè", "name_ru": "Êóìêóðãàíñêèé ðàéîí", "name_uz": "Qo‘mqo‘rg‘on tumani"}, "region": 9, "slug": "qomqorgon-tumani", "ordering": 6}}, {"model": "geo.district", "pk": 124, "fields": {"name": {"name_oz": "Ìóçðàáîò òóìàíè", "name_ru": "Ìóçðàáàäñêèé ðàéîí", "name_uz": "Muzrabot tumani"}, "region": 9, "slug": "muzrabot-tumani", "ordering": 7}}, {"model": "geo.district", "pk": 125, "fields": {"name": {"name_oz": "Îëòèíñîé òóìàíè", "name_ru": "Àëòûíñàéñêèé ðàéîí", "name_uz": "Oltinsoy tumani"}, "region": 9, "slug": "oltinsoy-tumani", "ordering": 8}}, {"model": "geo.district", "pk": 126, "fields": {"name": {"name_oz": "Ñàðèîñè¸ òóìàíè", "name_ru": "Ñàðèàñèéñêèé ðàéîí", "name_uz": "Sariosiyo tumani"}, "region": 9, "slug": "sariosiyo-tumani", "ordering": 9}}, {"model": "geo.district", "pk": 127, "fields": {"name": {"name_oz": "Òåðìèç òóìàíè", "name_ru": "Òåðìåçñêèé ðàéîí", "name_uz": "Termiz tumani"}, "region": 9, "slug": "termiz-tumani", "ordering": 10}}, {"model": "geo.district", "pk": 128, "fields": {"name": {"name_oz": "Òåðìèç øà?ðè", "name_ru": "ãîðîä Òåðìåç", "name_uz": "Termiz shahri"}, "region": 9, "slug": "termiz-shahri", "ordering": 11}}, {"model": "geo.district", "pk": 129, "fields": {"name": {"name_oz": "Óçóí òóìàíè", "name_ru": "Óçóíñêèé ðàéîí", "name_uz": "Uzun tumani"}, "region": 9, "slug": "uzun-tumani", "ordering": 12}}, {"model": "geo.district", "pk": 130, "fields": {"name": {"name_oz": "Øåðîáîä òóìàíè", "name_ru": "Øåðàáàäñêèé ðàéîí", "name_uz": "Sherobod tumani"}, "region": 9, "slug": "sherobod-tumani", "ordering": 13}}, {"model": "geo.district", "pk": 131, "fields": {"name": {"name_oz": "Ø¢ð÷è òóìàíè", "name_ru": "Øóð÷èíñêèé ðàéîí", "name_uz": "Sho‘rchi tumani"}, "region": 9, "slug": "shorchi-tumani", "ordering": 14}}, {"model": "geo.district", "pk": 132, "fields": {"name": {"name_oz": "Áàíäèõîí òóìàíè", "name_ru": "Áàíäèõàíñêèé ðàéîí", "name_uz": "Bandixon tumani"}, "region": 9, "slug": "bandixon-tumani", "ordering": 15}}, {"model": "geo.district", "pk": 133, "fields": {"name": {"name_oz": "Áî¸âóò òóìàíè", "name_ru": "Áàÿóòñêèé ðàéîí", "name_uz": "Boyovut tumani"}, "region": 10, "slug": "boyovut-tumani", "ordering": 1}}, {"model": "geo.district", "pk": 134, "fields": {"name": {"name_oz": "Ãóëèñòîí òóìàíè", "name_ru": "Ãóëèñòàíñêèé ðàéîí", "name_uz": "Guliston tumani"}, "region": 10, "slug": "guliston-tumani", "ordering": 2}}, {"model": "geo.district", "pk": 135, "fields": {"name": {"name_oz": "Ãóëèñòîí øà?ðè", "name_ru": "ãîðîä Ãóëèñòàí", "name_uz": "Guliston shahri"}, "region": 10, "slug": "guliston-shahri", "ordering": 3}}, {"model": "geo.district", "pk": 136, "fields": {"name": {"name_oz": "Ìèðçàîáîä òóìàíè", "name_ru": "Ìèðçààáàäñêèé ðàéîí", "name_uz": "Mirzaobod tumani"}, "region": 10, "slug": "mirzaobod-tumani", "ordering": 4}}, {"model": "geo.district", "pk": 137, "fields": {"name": {"name_oz": "Î?îëòèí òóìàíè", "name_ru": "Àêàëòûíñêèé ðàéîí", "name_uz": "Oqoltin tumani"}, "region": 10, "slug": "oqoltin-tumani", "ordering": 5}}, {"model": "geo.district", "pk": 138, "fields": {"name": {"name_oz": "Ñàéõóíîáîä òóìàíè", "name_ru": "Ñàéõóíàáàäñêèé ðàéîí", "name_uz": "Sayxunobod tumani"}, "region": 10, "slug": "sayxunobod-tumani", "ordering": 6}}, {"model": "geo.district", "pk": 139, "fields": {"name": {"name_oz": "Ñàðäîáà òóìàíè", "name_ru": "Ñàðäîáñêèé ðàéîí", "name_uz": "Sardoba tumani"}, "region": 10, "slug": "sardoba-tumani", "ordering": 7}}, {"model": "geo.district", "pk": 140, "fields": {"name": {"name_oz": "Ñèðäàð¸ òóìàíè", "name_ru": "Ñûðäàðüèíñêèé ðàéîí", "name_uz": "Sirdaryo tumani"}, "region": 10, "slug": "sirdaryo-tumani", "ordering": 8}}, {"model": "geo.district", "pk": 141, "fields": {"name": {"name_oz": "Õàâîñ òóìàíè", "name_ru": "Õàâàñòñêèé ðàéîí", "name_uz": "Xavos tumani"}, "region": 10, "slug": "xavos-tumani", "ordering": 9}}, {"model": "geo.district", "pk": 142, "fields": {"name": {"name_oz": "Øèðèí øà?ðè", "name_ru": "ãîðîä Øèðèí", "name_uz": "Shirin shahri"}, "region": 10, "slug": "shirin-shahri", "ordering": 10}}, {"model": "geo.district", "pk": 143, "fields": {"name": {"name_oz": "ßíãèåð øà?ðè", "name_ru": "ãîðîä ßíãèåð", "name_uz": "Yangiyer shahri"}, "region": 10, "slug": "yangiyer-shahri", "ordering": 11}}, {"model": "geo.district", "pk": 144, "fields": {"name": {"name_oz": "Àíãèðåí øà?ðè", "name_ru": "ãîðîä Àíãðåí", "name_uz": "Angiren shahri"}, "region": 11, "slug": "angiren-shahri", "ordering": 1}}, {"model": "geo.district", "pk": 145, "fields": {"name": {"name_oz": "Áåêàáîä òóìàíè", "name_ru": "Áåêàáàäñêèé ðàéîí", "name_uz": "Bekabod tumani"}, "region": 11, "slug": "bekabod-tumani", "ordering": 2}}, {"model": "geo.district", "pk": 146, "fields": {"name": {"name_oz": "Áåêàáîä øà?ðè", "name_ru": "ãîðîä Áåêàáàä", "name_uz": "Bekabod shahri"}, "region": 11, "slug": "bekabod-shahri", "ordering": 3}}, {"model": "geo.district", "pk": 147, "fields": {"name": {"name_oz": "Á¢êà òóìàíè", "name_ru": "Áóêèíñêèé ðàéîí", "name_uz": "Bo‘ka tumani"}, "region": 11, "slug": "boka-tumani", "ordering": 4}}, {"model": "geo.district", "pk": 148, "fields": {"name": {"name_oz": "Á¢ñòîíëè? òóìàíè", "name_ru": "Áîñòàíëûêñêèé ðàéîí", "name_uz": "Bo‘stonliq tumani"}, "region": 11, "slug": "bostonliq-tumani", "ordering": 5}}, {"model": "geo.district", "pk": 149, "fields": {"name": {"name_oz": "Çàíãèîòà òóìàíè", "name_ru": "Çàíãèàòèíñêèé ðàéîí", "name_uz": "Zangiota tumani"}, "region": 11, "slug": "zangiota-tumani", "ordering": 6}}, {"model": "geo.district", "pk": 150, "fields": {"name": {"name_oz": "?èáðàé òóìàíè", "name_ru": "Êèáðàéñêèé ðàéîí", "name_uz": "Qibray tumani"}, "region": 11, "slug": "qibray-tumani", "ordering": 7}}, {"model": "geo.district", "pk": 151, "fields": {"name": {"name_oz": "?óéè÷èð÷è? òóìàíè", "name_ru": "Êóéè÷èð÷èêñêèé ðàéîí", "name_uz": "Quyichirchiq tumani"}, "region": 11, "slug": "quyichirchiq-tumani", "ordering": 8}}, {"model": "geo.district", "pk": 152, "fields": {"name": {"name_oz": "Î??¢ð?îí òóìàíè", "name_ru": "Àêêóðãàíñêèé ðàéîí", "name_uz": "Oqqo‘rg‘on tumani"}, "region": 11, "slug": "oqqorgon-tumani", "ordering": 9}}, {"model": "geo.district", "pk": 153, "fields": {"name": {"name_oz": "Îëìàëè? øà?ðè", "name_ru": "ãîðîä Àëìàëûê", "name_uz": "Olmaliq shahri"}, "region": 11, "slug": "olmaliq-shahri", "ordering": 10}}, {"model": "geo.district", "pk": 154, "fields": {"name": {"name_oz": "Î?àíãàðîí òóìàíè", "name_ru": "Àõàíãàðàíñêèé ðàéîí", "name_uz": "Ohangaron tumani"}, "region": 11, "slug": "ohangaron-tumani", "ordering": 11}}, {"model": "geo.district", "pk": 155, "fields": {"name": {"name_oz": "Ïàðêåíò òóìàíè", "name_ru": "Ïàðêåíòñêèé ðàéîí", "name_uz": "Parkent tumani"}, "region": 11, "slug": "parkent-tumani", "ordering": 12}}, {"model": "geo.district", "pk": 156, "fields": {"name": {"name_oz": "Ïèñêåíò òóìàíè", "name_ru": "Ïñêåíòñêèé ðàéîí", "name_uz": "Piskent tumani"}, "region": 11, "slug": "piskent-tumani", "ordering": 13}}, {"model": "geo.district", "pk": 157, "fields": {"name": {"name_oz": "¡ðòà÷èð÷è? òóìàíè", "name_ru": "Óðòà÷èð÷èêñêèé ðàéîí", "name_uz": "O‘rtachirchiq tumani"}, "region": 11, "slug": "ortachirchiq-tumani", "ordering": 14}}, {"model": "geo.district", "pk": 158, "fields": {"name": {"name_oz": "×èíîç òóìàíè", "name_ru": "×èíàçñêèé ðàéîí", "name_uz": "Chinoz tumani"}, "region": 11, "slug": "chinoz-tumani", "ordering": 15}}, {"model": "geo.district", "pk": 159, "fields": {"name": {"name_oz": "×èð÷è? øà?ðè", "name_ru": "ãîðîä ×èð÷èê", "name_uz": "Chirchiq shahri"}, "region": 11, "slug": "chirchiq-shahri", "ordering": 16}}, {"model": "geo.district", "pk": 160, "fields": {"name": {"name_oz": "Þ?îðè÷èð÷è? òóìàíè", "name_ru": "Þêîðè÷èð÷èêñêèé ðàéîí", "name_uz": "Yuqorichirchiq tumani"}, "region": 11, "slug": "yuqorichirchiq-tumani", "ordering": 17}}, {"model": "geo.district", "pk": 161, "fields": {"name": {"name_oz": "ßíãèé¢ë òóìàíè", "name_ru": "ßíãèþëüñêèé ðàéîí", "name_uz": "Yangiyo‘l tumani"}, "region": 11, "slug": "yangiyol-tumani", "ordering": 18}}, {"model": "geo.district", "pk": 162, "fields": {"name": {"name_oz": "Î?àíãàðîí øà?ðè", "name_ru": "ãîðîä Àõàíãàðàíñêèé", "name_uz": "Ohangaron shahri"}, "region": 11, "slug": "ohangaron-shahri", "ordering": 19}}, {"model": "geo.district", "pk": 163, "fields": {"name": {"name_oz": "ßíãèé¢ë øà?ðè", "name_ru": "ãîðîä ßíãèþëü", "name_uz": "Yangiyo‘l shahri"}, "region": 11, "slug": "yangiyol-shahri", "ordering": 20}}, {"model": "geo.district", "pk": 164, "fields": {"name": {"name_oz": "Òîøêåíò òóìàíè", "name_ru": "Òàøêåíòñêèé ðàéîí", "name_uz": "Toshkent tumani"}, "region": 11, "slug": "toshkent-tumani", "ordering": 21}}, {"model": "geo.district", "pk": 165, "fields": {"name": {"name_oz": "Áåøàðè? òóìàíè", "name_ru": "Áåøàðûêñêèé ðàéîí", "name_uz": "Beshariq tumani"}, "region": 12, "slug": "beshariq-tumani", "ordering": 1}}, {"model": "geo.district", "pk": 166, "fields": {"name": {"name_oz": "Áî?äîä òóìàíè", "name_ru": "Áàãäàäñêèé ðàéîí", "name_uz": "Bog‘dod tumani"}, "region": 12, "slug": "bogdod-tumani", "ordering": 2}}, {"model": "geo.district", "pk": 167, "fields": {"name": {"name_oz": "Áóâàéäà òóìàíè", "name_ru": "Áóâàéäèíñêèé ðàéîí", "name_uz": "Buvayda tumani"}, "region": 12, "slug": "buvayda-tumani", "ordering": 3}}, {"model": "geo.district", "pk": 168, "fields": {"name": {"name_oz": "Äàí?àðà òóìàíè", "name_ru": "Äàíãàðèíñêèé ðàéîí", "name_uz": "Dang‘ara tumani"}, "region": 12, "slug": "dangara-tumani", "ordering": 4}}, {"model": "geo.district", "pk": 169, "fields": {"name": {"name_oz": "¨ç¸âîí òóìàíè", "name_ru": "ßçúÿâàíñêèé ðàéîí", "name_uz": "Yozyovon tumani"}, "region": 12, "slug": "yozyovon-tumani", "ordering": 5}}, {"model": "geo.district", "pk": 170, "fields": {"name": {"name_oz": "?óâà òóìàíè", "name_ru": "Êóâèíñêèé ðàéîí", "name_uz": "Quva tumani"}, "region": 12, "slug": "quva-tumani", "ordering": 6}}, {"model": "geo.district", "pk": 171, "fields": {"name": {"name_oz": "?óâàñîé øà?ðè", "name_ru": "ãîðîä Êóâàñàé", "name_uz": "Quvasoy shahri"}, "region": 12, "slug": "quvasoy-shahri", "ordering": 7}}, {"model": "geo.district", "pk": 172, "fields": {"name": {"name_oz": "?¢?îí øà?ðè", "name_ru": "ãîðîä Êîêàíä", "name_uz": "Qo‘qon shahri"}, "region": 12, "slug": "qoqon-shahri", "ordering": 8}}, {"model": "geo.district", "pk": 173, "fields": {"name": {"name_oz": "?¢øòåïà òóìàíè", "name_ru": "Êóøòåïèíñêèé ðàéîí", "name_uz": "Qo‘shtepa tumani"}, "region": 12, "slug": "qoshtepa-tumani", "ordering": 9}}, {"model": "geo.district", "pk": 174, "fields": {"name": {"name_oz": "Ìàð?èëîí øà?ðè", "name_ru": "ãîðîä Ìàðãèëàí", "name_uz": "Marg‘ilon shahri"}, "region": 12, "slug": "margilon-shahri", "ordering": 10}}, {"model": "geo.district", "pk": 175, "fields": {"name": {"name_oz": "Îëòèàðè? òóìàíè", "name_ru": "Àëòûàðûêñêèé ðàéîí", "name_uz": "Oltiariq tumani"}, "region": 12, "slug": "oltiariq-tumani", "ordering": 11}}, {"model": "geo.district", "pk": 176, "fields": {"name": {"name_oz": "Ðèøòîí òóìàíè", "name_ru": "Ðèøòàíñêèé ðàéîí", "name_uz": "Rishton tumani"}, "region": 12, "slug": "rishton-tumani", "ordering": 12}}, {"model": "geo.district", "pk": 177, "fields": {"name": {"name_oz": "Ñ¢õ òóìàíè", "name_ru": "Ñîõñêèé ðàéîí", "name_uz": "So‘x tumani"}, "region": 12, "slug": "sox-tumani", "ordering": 13}}, {"model": "geo.district", "pk": 178, "fields": {"name": {"name_oz": "Òîøëî? òóìàíè", "name_ru": "Òàøëàêñêèé ðàéîí", "name_uz": "Toshloq tumani"}, "region": 12, "slug": "toshloq-tumani", "ordering": 14}}, {"model": "geo.district", "pk": 179, "fields": {"name": {"name_oz": "Ó÷ê¢ïðèê òóìàíè", "name_ru": "Ó÷êóïðèêñêèé ðàéîí", "name_uz": "Uchko‘prik tumani"}, "region": 12, "slug": "uchkoprik-tumani", "ordering": 15}}, {"model": "geo.district", "pk": 180, "fields": {"name": {"name_oz": "¡çáåêèñòîí òóìàíè", "name_ru": "Óçáåêèñòàíñêèé ðàéîí", "name_uz": "O‘zbekiston tumani"}, "region": 12, "slug": "ozbekiston-tumani", "ordering": 16}}, {"model": "geo.district", "pk": 181, "fields": {"name": {"name_oz": "Ôàð?îíà òóìàíè", "name_ru": "Ôåðãàíñêèé ðàéîí", "name_uz": "Farg‘ona tumani"}, "region": 12, "slug": "fargona-tumani", "ordering": 17}}, {"model": "geo.district", "pk": 182, "fields": {"name": {"name_oz": "Ôàð?îíà øà?ðè", "name_ru": "ãîðîä Ôåðãàíà", "name_uz": "Farg‘ona shahri"}, "region": 12, "slug": "fargona-shahri", "ordering": 18}}, {"model": "geo.district", "pk": 183, "fields": {"name": {"name_oz": "Ôóð?àò òóìàíè", "name_ru": "Ôóðêàòñêèé ðàéîí", "name_uz": "Furqat tumani"}, "region": 12, "slug": "furqat-tumani", "ordering": 19}}, {"model": "geo.district", "pk": 184, "fields": {"name": {"name_oz": "Áî?îò òóìàíè", "name_ru": "Áàãàòñêèé ðàéîí", "name_uz": "Bog‘ot tumani"}, "region": 13, "slug": "bogot-tumani", "ordering": 1}}, {"model": "geo.district", "pk": 185, "fields": {"name": {"name_oz": "Ãóðëàí òóìàíè", "name_ru": "Ãóðëåíñêèé ðàéîí", "name_uz": "Gurlan tumani"}, "region": 13, "slug": "gurlan-tumani", "ordering": 2}}, {"model": "geo.district", "pk": 186, "fields": {"name": {"name_oz": "?¢øê¢ïèð òóìàíè", "name_ru": "Êîøêóïûðñêèé ðàéîí", "name_uz": "Qo‘shko‘pir tumani"}, "region": 13, "slug": "qoshkopir-tumani", "ordering": 3}}, {"model": "geo.district", "pk": 187, "fields": {"name": {"name_oz": "Óðãàí÷ òóìàíè", "name_ru": "Óðãåí÷ñêèé ðàéîí", "name_uz": "Urganch tumani"}, "region": 13, "slug": "urganch-tumani", "ordering": 4}}, {"model": "geo.district", "pk": 188, "fields": {"name": {"name_oz": "Óðãàí÷ øà?ðè", "name_ru": "ãîðîä Óðãåí÷", "name_uz": "Urganch shahri"}, "region": 13, "slug": "urganch-shahri", "ordering": 5}}, {"model": "geo.district", "pk": 189, "fields": {"name": {"name_oz": "Õèâà òóìàíè", "name_ru": "Õèâèíñêèé ðàéîí", "name_uz": "Xiva tumani"}, "region": 13, "slug": "xiva-tumani", "ordering": 6}}, {"model": "geo.district", "pk": 190, "fields": {"name": {"name_oz": "Õàçàðàñï òóìàíè", "name_ru": "Õàçàðàñïñêèé ðàéîí", "name_uz": "Xazarasp tumani"}, "region": 13, "slug": "xazarasp-tumani", "ordering": 7}}, {"model": "geo.district", "pk": 191, "fields": {"name": {"name_oz": "Õîí?à òóìàíè", "name_ru": "Õàíêèíñêèé ðàéîí", "name_uz": "Xonqa tumani"}, "region": 13, "slug": "xonqa-tumani", "ordering": 8}}, {"model": "geo.district", "pk": 192, "fields": {"name": {"name_oz": "Øàâîò òóìàíè", "name_ru": "Øàâàòñêèé ðàéîí", "name_uz": "Shavot tumani"}, "region": 13, "slug": "shavot-tumani", "ordering": 9}}, {"model": "geo.district", "pk": 193, "fields": {"name": {"name_oz": "ßíãèàðè? òóìàíè", "name_ru": "ßíãèàðûêñêèé ðàéîí", "name_uz": "Yangiariq tumani"}, "region": 13, "slug": "yangiariq-tumani", "ordering": 10}}, {"model": "geo.district", "pk": 194, "fields": {"name": {"name_oz": "ßíãèáîçîð òóìàíè", "name_ru": "ßíãèáàçàðñêèé ðàéîí", "name_uz": "Yangibozor tumani"}, "region": 13, "slug": "yangibozor-tumani", "ordering": 11}}, {"model": "geo.district", "pk": 195, "fields": {"name": {"name_oz": "Õèâà øà?ðè", "name_ru": "ãîðîä Õèâà", "name_uz": "Xiva shahri"}, "region": 13, "slug": "xiva-shahri", "ordering": 12}}, {"model": "geo.district", "pk": 196, "fields": {"name": {"name_oz": "Ä¢ñòëèê øà?ðè\r\nÄ¢ñòëèê øà?ðè", "name_ru": "ãîðîä Ä¢ñòëèê\r\nÄ¢ñòëèê", "name_uz": "Do'stlik shahri"}, "region": 13, "slug": "dostlik-shahri", "ordering": 13}}, {"model": "geo.district", "pk": 197, "fields": {"name": {"name_oz": "Òóïðî??àëúà òóìàíè", "name_ru": "Òèðîêêàëüñêèé ðàéîí", "name_uz": "Tuproqqala tumani"}, "region": 13, "slug": "tuproqqala-tumani", "ordering": 14}}, {"model": "geo.district", "pk": 198, "fields": {"name": {"name_oz": "Áåêòèìåð òóìàíè", "name_ru": "Áåêòåìèðñêèé ðàéîí", "name_uz": "Bektimer tumani"}, "region": 14, "slug": "bektimer-tumani", "ordering": 1}}, {"model": "geo.district", "pk": 199, "fields": {"name": {"name_oz": "Ìèðçî-Óëóãáåêñêèé ðàéîí", "name_ru": "Ìèðçî-Óëóãáåêñêèé ðàéîí", "name_uz": "Mirzo Ulug'bek tumani"}, "region": 14, "slug": "mirzo-ulugbek-tumani", "ordering": 2}}, {"model": "geo.district", "pk": 200, "fields": {"name": {"name_oz": "Ìèðîáîä òóìàíè", "name_ru": "Ìèðàáàäñêèé ðàéîí", "name_uz": "Mirobod tumani"}, "region": 14, "slug": "mirobod-tumani", "ordering": 3}}, {"model": "geo.district", "pk": 201, "fields": {"name": {"name_oz": "Îëìàçîð òóìàíè", "name_ru": "Àëìàçàðñêèé ðàéîí", "name_uz": "Olmazor tumani"}, "region": 14, "slug": "olmazor-tumani", "ordering": 4}}, {"model": "geo.district", "pk": 202, "fields": {"name": {"name_oz": "Ñèðãàëè òóìàíè", "name_ru": "Ñåðãåëèéñêèé ðàéîí", "name_uz": "Sirg'ali tumani"}, "region": 14, "slug": "sirgali-tumani", "ordering": 5}}, {"model": "geo.district", "pk": 203, "fields": {"name": {"name_oz": "Ó÷òåïà òóìàíè", "name_ru": "Ó÷òåïèíñêèé ðàéîí", "name_uz": "Uchtepa tumani"}, "region": 14, "slug": "uchtepa-tumani", "ordering": 6}}, {"model": "geo.district", "pk": 204, "fields": {"name": {"name_oz": "ßøíîáîä òóìàíè", "name_ru": "ßøíîáîäñêèé ðàéîí", "name_uz": "Yashnobod tumani"}, "region": 14, "slug": "yashnobod-tumani", "ordering": 7}}, {"model": "geo.district", "pk": 205, "fields": {"name": {"name_oz": "×èëîíçîð òóìàíè", "name_ru": "×èëàíçàðñêèé ðàéîí", "name_uz": "Chilonzor tumani"}, "region": 14, "slug": "chilonzor-tumani", "ordering": 8}}, {"model": "geo.district", "pk": 206, "fields": {"name": {"name_oz": "Øàéõîíòî?óð òóìàíè", "name_ru": "Øàéõàíòàõóðñêèé ðàéîí", "name_uz": "Shayxontohur tumani"}, "region": 14, "slug": "shayxontohur-tumani", "ordering": 9}}, {"model": "geo.district", "pk": 207, "fields": {"name": {"name_oz": "Þíóñîáîä òóìàíè", "name_ru": "Þíóñàáàäñêèé ðàéîí", "name_uz": "Yunusobod tumani"}, "region": 14, "slug": "yunusobod-tumani", "ordering": 10}}, {"model": "geo.district", "pk": 208, "fields": {"name": {"name_oz": "ßêêàñàðîé òóìàíè", "name_ru": "ßêêàñàðàéñêèé ðàéîí", "name_uz": "Yakkasaroy tumani"}, "region": 14, "slug": "yakkasaroy-tumani", "ordering": 11}}, {"model": "geo.district", "pk": 209, "fields": {"name": {"name_oz": "ßíãè?à¸ò òóìàíè", "name_ru": "ßíãèõà¸òñêèé ðàéîí", "name_uz": "Yangihayot tumani"}, "region": 14, "slug": "yangihayot-tumani", "ordering": 12}}]